stk.v.4.3 

BEGIN Ephemeris 
 
NumberOfEphemerisPoints		146 
ScenarioEpoch	    1 Sep 2020  8:52:22.960435152 
InterpolationMethod		Lagrange 
InterpolationOrder		5 
CentralBody				Earth 
CoordinateSystem			TEME 
CoordinateSystemEpoch	  1 Sep 2020  8:52:22.960435152 
DistanceUnit			Kilometers 
 
EphemerisTimePosVel 
 
       0.00000000   -6609.35998311    2749.50359944       0.03316982 -0.170818277 -0.435886779  7.449209551
 END Ephemeris 
